[
  {
    "name": "ONEWEB-0236",
    "noradId": "48797",
    "line1": "1 48797U 21045AG  26195.70859650  .00000059  00000+0  12168-3 0  9994",
    "line2": "2 48797  87.8983 253.7225 0002132  95.2280 264.9093 13.15548551247879"
  },
  {
    "name": "ONEWEB-0248",
    "noradId": "48798",
    "line1": "1 48798U 21045AH  26195.72126574 -.00000115  00000+0 -33993-3 0  9993",
    "line2": "2 48798  87.8994 253.7067 0002449 106.4944 253.6455 13.15548549248032"
  },
  {
    "name": "ONEWEB-0225",
    "noradId": "48799",
    "line1": "1 48799U 21045AJ  26195.66739906 -.00000012  00000+0 -66335-4 0  9999",
    "line2": "2 48799  87.8988 253.7240 0002238 112.9016 247.2351 13.15548180248032"
  },
  {
    "name": "ONEWEB-0215",
    "noradId": "48800",
    "line1": "1 48800U 21045AK  26195.71334065  .00000033  00000+0  53339-4 0  9996",
    "line2": "2 48800  87.8998 253.6986 0002391 114.8099 245.3280 13.15549379247911"
  },
  {
    "name": "ONEWEB-0216",
    "noradId": "48801",
    "line1": "1 48801U 21045AL  26195.64679836 -.00000063  00000+0 -20180-3 0  9999",
    "line2": "2 48801  87.8993 253.7258 0002013  97.5624 262.5735 13.15547895247919"
  },
  {
    "name": "ONEWEB-0239",
    "noradId": "48802",
    "line1": "1 48802U 21045AM  26195.65155381 -.00000132  00000+0 -38434-3 0  9993",
    "line2": "2 48802  87.8981 253.7293 0002741 111.6761 248.4661 13.15547608247951"
  },
  {
    "name": "ONEWEB-0249",
    "noradId": "48967",
    "line1": "1 48967U 21060A   26195.56377012  .00000040  00000+0  72245-4 0  9994",
    "line2": "2 48967  87.9079 223.3400 0002163  95.7173 264.4204 13.16592779243218"
  },
  {
    "name": "ONEWEB-0250",
    "noradId": "48968",
    "line1": "1 48968U 21060B   26195.62684926  .00000010  00000+0 -71540-5 0  9993",
    "line2": "2 48968  87.9080 220.9944 0003081  86.9104 273.2385 13.25835337243851"
  },
  {
    "name": "ONEWEB-0252",
    "noradId": "48970",
    "line1": "1 48970U 21060D   26195.59466520  .00000099  00000+0  22471-3 0  9993",
    "line2": "2 48970  87.9078 223.3262 0001847  96.3558 263.7784 13.16595264243261"
  },
  {
    "name": "ONEWEB-0253",
    "noradId": "48971",
    "line1": "1 48971U 21060E   26195.58358418  .00000000  00000+0 -34583-4 0  9990",
    "line2": "2 48971  87.9079 223.3337 0002231  93.1411 266.9976 13.16594862243190"
  },
  {
    "name": "ONEWEB-0254",
    "noradId": "48972",
    "line1": "1 48972U 21060F   26195.59308947  .00000046  00000+0  86139-4 0  9997",
    "line2": "2 48972  87.9080 223.3301 0002307  99.7080 260.4311 13.16593684243195"
  },
  {
    "name": "ONEWEB-0255",
    "noradId": "48973",
    "line1": "1 48973U 21060G   26195.63108704 -.00000056  00000+0 -17965-3 0  9995",
    "line2": "2 48973  87.9081 223.3283 0002201  99.0702 261.0678 13.16593825243272"
  },
  {
    "name": "ONEWEB-0256",
    "noradId": "48974",
    "line1": "1 48974U 21060H   26195.58119535  .00000022  00000+0  23526-4 0  9996",
    "line2": "2 48974  87.9075 223.3413 0001851  93.7104 266.4238 13.16592658243238"
  },
  {
    "name": "ONEWEB-0257",
    "noradId": "48975",
    "line1": "1 48975U 21060J   26195.61367025  .00000003  00000+0 -24862-4 0  9994",
    "line2": "2 48975  87.9080 223.3234 0002032  99.1339 261.0022 13.16593981243195"
  },
  {
    "name": "ONEWEB-0258",
    "noradId": "48976",
    "line1": "1 48976U 21060K   26195.61525359  .00000132  00000+0  31234-3 0  9993",
    "line2": "2 48976  87.9082 223.3351 0002114  95.5408 264.5964 13.16594301243208"
  },
  {
    "name": "ONEWEB-0259",
    "noradId": "48977",
    "line1": "1 48977U 21060L   26195.53292331  .00000181  00000+0  43866-3 0  9994",
    "line2": "2 48977  87.9080 223.3502 0002245  97.6241 262.5145 13.16594318243227"
  },
  {
    "name": "ONEWEB-0260",
    "noradId": "48978",
    "line1": "1 48978U 21060M   26195.60019436  .00000086  00000+0  19021-3 0  9996",
    "line2": "2 48978  87.9073 223.3375 0001681  94.3175 265.8148 13.16595368243215"
  },
  {
    "name": "ONEWEB-0261",
    "noradId": "48979",
    "line1": "1 48979U 21060N   26195.57013472 -.00000027  00000+0 -10496-3 0  9991",
    "line2": "2 48979  87.9077 223.3441 0002053 102.9824 257.1537 13.16593722243268"
  },
  {
    "name": "ONEWEB-0262",
    "noradId": "48980",
    "line1": "1 48980U 21060P   26195.62633659 -.00000077  00000+0 -23557-3 0  9991",
    "line2": "2 48980  87.9082 223.3192 0002375  97.3160 262.8240 13.16593759243237"
  },
  {
    "name": "ONEWEB-0263",
    "noradId": "48981",
    "line1": "1 48981U 21060Q   26195.58200299 -.00000038  00000+0 -13307-3 0  9996",
    "line2": "2 48981  87.9081 223.3401 0002184 102.6050 257.5325 13.16593324243194"
  },
  {
    "name": "ONEWEB-0264",
    "noradId": "48982",
    "line1": "1 48982U 21060R   26195.61919602  .00000104  00000+0  23853-3 0  9995",
    "line2": "2 48982  87.9073 223.3350 0001910  97.8715 262.2633 13.16592916243201"
  },
  {
    "name": "ONEWEB-0266",
    "noradId": "48984",
    "line1": "1 48984U 21060T   26195.56457697 -.00000007  00000+0 -53014-4 0  9999",
    "line2": "2 48984  87.9082 223.3371 0002122  91.7037 268.4337 13.16595711243184"
  },
  {
    "name": "ONEWEB-0267",
    "noradId": "48985",
    "line1": "1 48985U 21060U   26195.57567130  .00000018  00000+0  12479-4 0  9995",
    "line2": "2 48985  87.9079 223.3320 0002035  99.3719 260.7642 13.16593941243197"
  },
  {
    "name": "ONEWEB-0268",
    "noradId": "48986",
    "line1": "1 48986U 21060V   26195.62000282  .00000112  00000+0  25830-3 0  9991",
    "line2": "2 48986  87.9081 223.3319 0001943  93.8307 266.3046 13.16593473243468"
  },
  {
    "name": "ONEWEB-0269",
    "noradId": "48987",
    "line1": "1 48987U 21060W   26195.60100341  .00000141  00000+0  33489-3 0  9998",
    "line2": "2 48987  87.9071 223.3370 0001958  88.2849 271.8506 13.16593445243236"
  },
  {
    "name": "ONEWEB-0270",
    "noradId": "48988",
    "line1": "1 48988U 21060X   26195.61840506  .00000077  00000+0  16813-3 0  9994",
    "line2": "2 48988  87.9087 223.3343 0002263 100.0539 260.0848 13.16593835243279"
  },
  {
    "name": "ONEWEB-0271",
    "noradId": "48989",
    "line1": "1 48989U 21060Y   26195.60575513  .00000118  00000+0  27449-3 0  9990",
    "line2": "2 48989  87.9079 223.3264 0002112 100.4418 259.6951 13.16594174243272"
  },
  {
    "name": "ONEWEB-0272",
    "noradId": "48990",
    "line1": "1 48990U 21060Z   26195.62791455  .00000005  00000+0 -21204-4 0  9999",
    "line2": "2 48990  87.9075 223.3325 0001828  99.3535 260.7803 13.16595896243223"
  },
  {
    "name": "ONEWEB-0273",
    "noradId": "48991",
    "line1": "1 48991U 21060AA  26195.57408433  .00000029  00000+0  43423-4 0  9997",
    "line2": "2 48991  87.9074 223.3446 0002141  97.3645 262.7729 13.16594206243195"
  },
  {
    "name": "ONEWEB-0274",
    "noradId": "48992",
    "line1": "1 48992U 21060AB  26195.59940705  .00000146  00000+0  34750-3 0  9995",
    "line2": "2 48992  87.9070 223.3391 0001723  94.8142 265.3186 13.16595536243238"
  },
  {
    "name": "ONEWEB-0275",
    "noradId": "48993",
    "line1": "1 48993U 21060AC  26195.58832513  .00000013  00000+0  87427-6 0  9997",
    "line2": "2 48993  87.9081 223.3331 0002005  96.0450 264.0910 13.16595524243165"
  }
]