OBJECT_NAME,OBJECT_ID,EPOCH,MEAN_MOTION,ECCENTRICITY,INCLINATION,RA_OF_ASC_NODE,ARG_OF_PERICENTER,MEAN_ANOMALY,EPHEMERIS_TYPE,CLASSIFICATION_TYPE,NORAD_CAT_ID,ELEMENT_SET_NO,REV_AT_EPOCH,BSTAR,MEAN_MOTION_DOT,MEAN_MOTION_DDOT
ONEWEB-0236,2021-045AG,2026-07-14T17:00:22.737600,13.15548551,.0002132,87.8983,253.7225,95.2280,264.9093,0,U,48797,999,24787,.12168E-3,.59E-6,0
ONEWEB-0248,2021-045AH,2026-07-14T17:18:37.359936,13.15548549,.0002449,87.8994,253.7067,106.4944,253.6455,0,U,48798,999,24803,-.33993E-3,-.115E-5,0
ONEWEB-0225,2021-045AJ,2026-07-14T16:01:03.278784,13.15548180,.0002238,87.8988,253.7240,112.9016,247.2351,0,U,48799,999,24803,-.66335E-4,-.12E-6,0
ONEWEB-0215,2021-045AK,2026-07-14T17:07:12.632160,13.15549379,.0002391,87.8998,253.6986,114.8099,245.3280,0,U,48800,999,24791,.53339E-4,.33E-6,0
ONEWEB-0216,2021-045AL,2026-07-14T15:31:23.378304,13.15547895,.0002013,87.8993,253.7258,97.5624,262.5735,0,U,48801,999,24791,-.2018E-3,-.63E-6,0
ONEWEB-0239,2021-045AM,2026-07-14T15:38:14.249184,13.15547608,.0002741,87.8981,253.7293,111.6761,248.4661,0,U,48802,999,24795,-.38434E-3,-.132E-5,0
ONEWEB-0249,2021-060A,2026-07-14T13:31:49.738368,13.16592779,.0002163,87.9079,223.3400,95.7173,264.4204,0,U,48967,999,24321,.72245E-4,.4E-6,0
ONEWEB-0250,2021-060B,2026-07-14T15:02:39.776064,13.25835337,.0003081,87.9080,220.9944,86.9104,273.2385,0,U,48968,999,24385,-.7154E-5,.1E-6,0
ONEWEB-0252,2021-060D,2026-07-14T14:16:19.073280,13.16595264,.0001847,87.9078,223.3262,96.3558,263.7784,0,U,48970,999,24326,.22471E-3,.99E-6,0
ONEWEB-0253,2021-060E,2026-07-14T14:00:21.673152,13.16594862,.0002231,87.9079,223.3337,93.1411,266.9976,0,U,48971,999,24319,-.34583E-4,0,0
ONEWEB-0254,2021-060F,2026-07-14T14:14:02.930208,13.16593684,.0002307,87.9080,223.3301,99.7080,260.4311,0,U,48972,999,24319,.86139E-4,.46E-6,0
ONEWEB-0255,2021-060G,2026-07-14T15:08:45.920256,13.16593825,.0002201,87.9081,223.3283,99.0702,261.0678,0,U,48973,999,24327,-.17965E-3,-.56E-6,0
ONEWEB-0256,2021-060H,2026-07-14T13:56:55.278240,13.16592658,.0001851,87.9075,223.3413,93.7104,266.4238,0,U,48974,999,24323,.23526E-4,.22E-6,0
ONEWEB-0257,2021-060J,2026-07-14T14:43:41.109600,13.16593981,.0002032,87.9080,223.3234,99.1339,261.0022,0,U,48975,999,24319,-.24862E-4,.3E-7,0
ONEWEB-0258,2021-060K,2026-07-14T14:45:57.910176,13.16594301,.0002114,87.9082,223.3351,95.5408,264.5964,0,U,48976,999,24320,.31234E-3,.132E-5,0
ONEWEB-0259,2021-060L,2026-07-14T12:47:24.573984,13.16594318,.0002245,87.9080,223.3502,97.6241,262.5145,0,U,48977,999,24322,.43866E-3,.181E-5,0
ONEWEB-0260,2021-060M,2026-07-14T14:24:16.792704,13.16595368,.0001681,87.9073,223.3375,94.3175,265.8148,0,U,48978,999,24321,.19021E-3,.86E-6,0
ONEWEB-0261,2021-060N,2026-07-14T13:40:59.639808,13.16593722,.0002053,87.9077,223.3441,102.9824,257.1537,0,U,48979,999,24326,-.10496E-3,-.27E-6,0
ONEWEB-0262,2021-060P,2026-07-14T15:01:55.481376,13.16593759,.0002375,87.9082,223.3192,97.3160,262.8240,0,U,48980,999,24323,-.23557E-3,-.77E-6,0
ONEWEB-0263,2021-060Q,2026-07-14T13:58:05.058336,13.16593324,.0002184,87.9081,223.3401,102.6050,257.5325,0,U,48981,999,24319,-.13307E-3,-.38E-6,0
ONEWEB-0264,2021-060R,2026-07-14T14:51:38.536128,13.16592916,.000191,87.9073,223.3350,97.8715,262.2633,0,U,48982,999,24320,.23853E-3,.104E-5,0
ONEWEB-0266,2021-060T,2026-07-14T13:32:59.450208,13.16595711,.0002122,87.9082,223.3371,91.7037,268.4337,0,U,48984,999,24318,-.53014E-4,-.7E-7,0
ONEWEB-0267,2021-060U,2026-07-14T13:48:58.000320,13.16593941,.0002035,87.9079,223.3320,99.3719,260.7642,0,U,48985,999,24319,.12479E-4,.18E-6,0
ONEWEB-0268,2021-060V,2026-07-14T14:52:48.243648,13.16593473,.0001943,87.9081,223.3319,93.8307,266.3046,0,U,48986,999,24346,.2583E-3,.112E-5,0
ONEWEB-0269,2021-060W,2026-07-14T14:25:26.694624,13.16593445,.0001958,87.9071,223.3370,88.2849,271.8506,0,U,48987,999,24323,.33489E-3,.141E-5,0
ONEWEB-0270,2021-060X,2026-07-14T14:50:30.197184,13.16593835,.0002263,87.9087,223.3343,100.0539,260.0848,0,U,48988,999,24327,.16813E-3,.77E-6,0
ONEWEB-0271,2021-060Y,2026-07-14T14:32:17.243232,13.16594174,.0002112,87.9079,223.3264,100.4418,259.6951,0,U,48989,999,24327,.27449E-3,.118E-5,0
ONEWEB-0272,2021-060Z,2026-07-14T15:04:11.817120,13.16595896,.0001828,87.9075,223.3325,99.3535,260.7803,0,U,48990,999,24322,-.21204E-4,.5E-7,0
ONEWEB-0273,2021-060AA,2026-07-14T13:46:40.886112,13.16594206,.0002141,87.9074,223.3446,97.3645,262.7729,0,U,48991,999,24319,.43423E-4,.29E-6,0
ONEWEB-0274,2021-060AB,2026-07-14T14:23:08.769120,13.16595536,.0001723,87.9070,223.3391,94.8142,265.3186,0,U,48992,999,24323,.3475E-3,.146E-5,0
ONEWEB-0275,2021-060AC,2026-07-14T14:07:11.291232,13.16595524,.0002005,87.9081,223.3331,96.0450,264.0910,0,U,48993,999,24316,.87427E-6,.13E-6,0
